[{"OBJECT_NAME":"GRUS-1D","OBJECT_ID":"2021-022E","EPOCH":"2026-03-09T23:44:16.341792","MEAN_MOTION":14.9882754,"ECCENTRICITY":0.00122189,"INCLINATION":97.5533,"RA_OF_ASC_NODE":315.589,"ARG_OF_PERICENTER":289.6697,"MEAN_ANOMALY":70.3207,"EPHEMERIS_TYPE":0,"CLASSIFICATION_TYPE":"U","NORAD_CAT_ID":47936,"ELEMENT_SET_NO":999,"REV_AT_EPOCH":27104,"BSTAR":0.00015470185,"MEAN_MOTION_DOT":1.811e-5,"MEAN_MOTION_DDOT":0},{"OBJECT_NAME":"HAWK-10A","OBJECT_ID":"2024-149CA","EPOCH":"2026-03-09T19:11:42.074592","MEAN_MOTION":14.96174213,"ECCENTRICITY":0.00043334,"INCLINATION":97.6943,"RA_OF_ASC_NODE":146.4192,"ARG_OF_PERICENTER":57.1994,"MEAN_ANOMALY":302.9645,"EPHEMERIS_TYPE":0,"CLASSIFICATION_TYPE":"U","NORAD_CAT_ID":60540,"ELEMENT_SET_NO":999,"REV_AT_EPOCH":8512,"BSTAR":0.00019454,"MEAN_MOTION_DOT":2.135e-5,"MEAN_MOTION_DDOT":0}]
